STARLINK-2022           
1 47643U 21012Z   23229.39370840  .00018297  00000+0  12430-2 0  9990
2 47643  53.0529 290.3302 0001235  86.2808 273.8322 15.06431309138777
